[{"OBJECT_NAME":"STARLINK-37010","OBJECT_ID":"2026-055AD","EPOCH":"2026-04-01T20:00:01.999008","MEAN_MOTION":15.85995562,"ECCENTRICITY":8.46e-5,"INCLINATION":53.1575,"RA_OF_ASC_NODE":221.0983,"ARG_OF_PERICENTER":57.7797,"MEAN_ANOMALY":343.3528,"EPHEMERIS_TYPE":0,"CLASSIFICATION_TYPE":"U","NORAD_CAT_ID":68289,"ELEMENT_SET_NO":999,"REV_AT_EPOCH":335,"BSTAR":-0.0069611,"MEAN_MOTION_DOT":-0.01543289,"MEAN_MOTION_DDOT":0},{"OBJECT_NAME":"STARLINK-37151","OBJECT_ID":"2026-055AE","EPOCH":"2026-04-01T20:00:01.999008","MEAN_MOTION":15.86090059,"ECCENTRICITY":9.06e-5,"INCLINATION":53.1569,"RA_OF_ASC_NODE":221.0904,"ARG_OF_PERICENTER":62.0476,"MEAN_ANOMALY":343.0419,"EPHEMERIS_TYPE":0,"CLASSIFICATION_TYPE":"U","NORAD_CAT_ID":68290,"ELEMENT_SET_NO":999,"REV_AT_EPOCH":335,"BSTAR":-0.007059,"MEAN_MOTION_DOT":-0.01568777,"MEAN_MOTION_DDOT":0},{"OBJECT_NAME":"STRIX-6","OBJECT_ID":"2026-056A","EPOCH":"2026-04-01T20:15:29.223072","MEAN_MOTION":14.99654927,"ECCENTRICITY":0.0016538,"INCLINATION":50.2843,"RA_OF_ASC_NODE":350.5377,"ARG_OF_PERICENTER":311.4234,"MEAN_ANOMALY":48.5293,"EPHEMERIS_TYPE":0,"CLASSIFICATION_TYPE":"U","NORAD_CAT_ID":68291,"ELEMENT_SET_NO":999,"REV_AT_EPOCH":181,"BSTAR":0.0004389,"MEAN_MOTION_DOT":5.226e-5,"MEAN_MOTION_DDOT":0},{"OBJECT_NAME":"ELECTRON KICK STAGE R/B","OBJECT_ID":"2026-056C","EPOCH":"2026-04-01T09:42:51.245856","MEAN_MOTION":15.40383024,"ECCENTRICITY":0.0155041,"INCLINATION":50.2914,"RA_OF_ASC_NODE":349.1674,"ARG_OF_PERICENTER":58.1304,"MEAN_ANOMALY":303.4645,"EPHEMERIS_TYPE":0,"CLASSIFICATION_TYPE":"U","NORAD_CAT_ID":68293,"ELEMENT_SET_NO":999,"REV_AT_EPOCH":180,"BSTAR":0.0014234,"MEAN_MOTION_DOT":0.00090799,"MEAN_MOTION_DDOT":0},{"OBJECT_NAME":"STARLINK-37107","OBJECT_ID":"2026-057A","EPOCH":"2026-04-01T20:00:01.999008","MEAN_MOTION":15.92008322,"ECCENTRICITY":0.0001445,"INCLINATION":97.2806,"RA_OF_ASC_NODE":215.28,"ARG_OF_PERICENTER":81.9655,"MEAN_ANOMALY":75.5878,"EPHEMERIS_TYPE":0,"CLASSIFICATION_TYPE":"U","NORAD_CAT_ID":68294,"ELEMENT_SET_NO":999,"REV_AT_EPOCH":288,"BSTAR":-0.0041315,"MEAN_MOTION_DOT":-0.01353435,"MEAN_MOTION_DDOT":0.0005274},{"OBJECT_NAME":"STARLINK-37147","OBJECT_ID":"2026-057B","EPOCH":"2026-04-01T20:00:01.999008","MEAN_MOTION":15.92082464,"ECCENTRICITY":0.00015,"INCLINATION":97.2801,"RA_OF_ASC_NODE":215.281,"ARG_OF_PERICENTER":75.1011,"MEAN_ANOMALY":85.9646,"EPHEMERIS_TYPE":0,"CLASSIFICATION_TYPE":"U","NORAD_CAT_ID":68295,"ELEMENT_SET_NO":999,"REV_AT_EPOCH":287,"BSTAR":-0.0041331,"MEAN_MOTION_DOT":-0.01359093,"MEAN_MOTION_DDOT":0.00053189},{"OBJECT_NAME":"STARLINK-37142","OBJECT_ID":"2026-057C","EPOCH":"2026-04-01T20:00:01.999008","MEAN_MOTION":15.92292557,"ECCENTRICITY":0.0001491,"INCLINATION":97.2795,"RA_OF_ASC_NODE":215.2858,"ARG_OF_PERICENTER":77.5962,"MEAN_ANOMALY":95.032,"EPHEMERIS_TYPE":0,"CLASSIFICATION_TYPE":"U","NORAD_CAT_ID":68296,"ELEMENT_SET_NO":999,"REV_AT_EPOCH":276,"BSTAR":-0.0041555,"MEAN_MOTION_DOT":-0.0138107,"MEAN_MOTION_DDOT":0.00054906},{"OBJECT_NAME":"STARLINK-37115","OBJECT_ID":"2026-057D","EPOCH":"2026-04-01T20:00:01.999008","MEAN_MOTION":15.92211161,"ECCENTRICITY":0.0001472,"INCLINATION":97.2792,"RA_OF_ASC_NODE":215.2833,"ARG_OF_PERICENTER":77.5103,"MEAN_ANOMALY":91.5008,"EPHEMERIS_TYPE":0,"CLASSIFICATION_TYPE":"U","NORAD_CAT_ID":68297,"ELEMENT_SET_NO":999,"REV_AT_EPOCH":276,"BSTAR":-0.0041319,"MEAN_MOTION_DOT":-0.01367627,"MEAN_MOTION_DDOT":0.00053878},{"OBJECT_NAME":"STARLINK-36355","OBJECT_ID":"2026-057E","EPOCH":"2026-04-01T20:00:01.999008","MEAN_MOTION":15.92147753,"ECCENTRICITY":0.0001437,"INCLINATION":97.2798,"RA_OF_ASC_NODE":215.2821,"ARG_OF_PERICENTER":85.5825,"MEAN_ANOMALY":79.1432,"EPHEMERIS_TYPE":0,"CLASSIFICATION_TYPE":"U","NORAD_CAT_ID":68298,"ELEMENT_SET_NO":999,"REV_AT_EPOCH":303,"BSTAR":-0.0040855,"MEAN_MOTION_DOT":-0.01348028,"MEAN_MOTION_DDOT":0.00052424},{"OBJECT_NAME":"STARLINK-37118","OBJECT_ID":"2026-057F","EPOCH":"2026-04-01T20:00:01.999008","MEAN_MOTION":15.92419853,"ECCENTRICITY":0.0001506,"INCLINATION":97.2787,"RA_OF_ASC_NODE":215.2885,"ARG_OF_PERICENTER":79.5689,"MEAN_ANOMALY":101.0638,"EPHEMERIS_TYPE":0,"CLASSIFICATION_TYPE":"U","NORAD_CAT_ID":68299,"ELEMENT_SET_NO":999,"REV_AT_EPOCH":287,"BSTAR":-0.0041022,"MEAN_MOTION_DOT":-0.01372426,"MEAN_MOTION_DDOT":0.00054342},{"OBJECT_NAME":"STARLINK-36875","OBJECT_ID":"2026-057G","EPOCH":"2026-04-01T20:00:01.999008","MEAN_MOTION":15.92339249,"ECCENTRICITY":0.0001532,"INCLINATION":97.2792,"RA_OF_ASC_NODE":215.287,"ARG_OF_PERICENTER":74.9984,"MEAN_ANOMALY":102.0515,"EPHEMERIS_TYPE":0,"CLASSIFICATION_TYPE":"U","NORAD_CAT_ID":68300,"ELEMENT_SET_NO":999,"REV_AT_EPOCH":293,"BSTAR":-0.0041094,"MEAN_MOTION_DOT":-0.01369176,"MEAN_MOTION_DDOT":0.0005406},{"OBJECT_NAME":"STARLINK-37099","OBJECT_ID":"2026-057H","EPOCH":"2026-04-01T20:00:01.999008","MEAN_MOTION":15.92474609,"ECCENTRICITY":0.0001513,"INCLINATION":97.2784,"RA_OF_ASC_NODE":215.2909,"ARG_OF_PERICENTER":77.841,"MEAN_ANOMALY":107.4162,"EPHEMERIS_TYPE":0,"CLASSIFICATION_TYPE":"U","NORAD_CAT_ID":68301,"ELEMENT_SET_NO":999,"REV_AT_EPOCH":276,"BSTAR":-0.0041063,"MEAN_MOTION_DOT":-0.01377627,"MEAN_MOTION_DDOT":0.00054753},{"OBJECT_NAME":"STARLINK-37007","OBJECT_ID":"2026-057J","EPOCH":"2026-04-01T20:00:01.999008","MEAN_MOTION":15.92603396,"ECCENTRICITY":0.000137,"INCLINATION":97.2778,"RA_OF_ASC_NODE":215.2945,"ARG_OF_PERICENTER":85.015,"MEAN_ANOMALY":109.4404,"EPHEMERIS_TYPE":0,"CLASSIFICATION_TYPE":"U","NORAD_CAT_ID":68302,"ELEMENT_SET_NO":999,"REV_AT_EPOCH":298,"BSTAR":-0.004203,"MEAN_MOTION_DOT":-0.01419007,"MEAN_MOTION_DDOT":0.0005791},{"OBJECT_NAME":"STARLINK-36300","OBJECT_ID":"2026-057K","EPOCH":"2026-04-01T20:00:01.999008","MEAN_MOTION":15.92532149,"ECCENTRICITY":0.0001394,"INCLINATION":97.278,"RA_OF_ASC_NODE":215.2926,"ARG_OF_PERICENTER":88.871,"MEAN_ANOMALY":101.2599,"EPHEMERIS_TYPE":0,"CLASSIFICATION_TYPE":"U","NORAD_CAT_ID":68303,"ELEMENT_SET_NO":999,"REV_AT_EPOCH":303,"BSTAR":-0.004162,"MEAN_MOTION_DOT":-0.01400226,"MEAN_MOTION_DDOT":0.00056459},{"OBJECT_NAME":"STARLINK-36849","OBJECT_ID":"2026-057L","EPOCH":"2026-04-01T20:00:01.999008","MEAN_MOTION":15.92685991,"ECCENTRICITY":0.0001484,"INCLINATION":97.2776,"RA_OF_ASC_NODE":215.2962,"ARG_OF_PERICENTER":81.1461,"MEAN_ANOMALY":116.9132,"EPHEMERIS_TYPE":0,"CLASSIFICATION_TYPE":"U","NORAD_CAT_ID":68304,"ELEMENT_SET_NO":999,"REV_AT_EPOCH":293,"BSTAR":-0.0041973,"MEAN_MOTION_DOT":-0.01423148,"MEAN_MOTION_DDOT":0.00058272},{"OBJECT_NAME":"STARLINK-36277","OBJECT_ID":"2026-057M","EPOCH":"2026-04-01T20:00:01.999008","MEAN_MOTION":15.92859565,"ECCENTRICITY":0.0001491,"INCLINATION":97.2768,"RA_OF_ASC_NODE":215.299,"ARG_OF_PERICENTER":81.0403,"MEAN_ANOMALY":125.1496,"EPHEMERIS_TYPE":0,"CLASSIFICATION_TYPE":"U","NORAD_CAT_ID":68305,"ELEMENT_SET_NO":999,"REV_AT_EPOCH":309,"BSTAR":-0.0044689,"MEAN_MOTION_DOT":-0.01527742,"MEAN_MOTION_DDOT":0.00066566}]
